{
  "type": "FeatureCollection",
  "features": [
    {
      "type": "Feature",
      "geometry": { "type": "Point", "coordinates": [-6.338, 39.472] },
      "properties": {
        "nombre_entidad": "Asociación Ambiental Sierra Verde",
        "categoria": "Ambiental",
        "tematica": "Conservación y educación ambiental",
        "ambito_geografico": "Regional",
        "localidad": "Cáceres",
        "telefono": "927123456",
        "correo": "contacto@sierra-verde.org",
        "pagina_contacto": "https://sierra-verde.org"
      }
    },
    {
      "type": "Feature",
      "geometry": { "type": "Point", "coordinates": [-6.97, 38.88] },
      "properties": {
        "nombre_entidad": "Colectivo Social Puerta Abierta",
        "categoria": "Social",
        "tematica": "Inclusión social y derechos humanos",
        "ambito_geografico": "Local",
        "localidad": "Badajoz",
        "telefono": "924123789",
        "correo": "info@puertaabierta.org",
        "pagina_contacto": "https://puertaabierta.org"
      }
    },
    {
      "type": "Feature",
      "geometry": { "type": "Point", "coordinates": [-6.22, 39.48] },
      "properties": {
        "nombre_entidad": "Fundación Desarrollo Económico",
        "categoria": "Económica",
        "tematica": "Emprendimiento y empleo sostenible",
        "ambito_geografico": "Provincial",
        "localidad": "Cáceres",
        "telefono": "927789123",
        "correo": "info@fundecon.org",
        "pagina_contacto": "https://fundecon.org"
      }
    },
    {
      "type": "Feature",
      "geometry": { "type": "Point", "coordinates": [-6.55, 39.05] },
      "properties": {
        "nombre_entidad": "Red Cultural Extremadura Viva",
        "categoria": "Otra",
        "tematica": "Promoción cultural y artística",
        "ambito_geografico": "Autonómico",
        "localidad": "Mérida",
        "telefono": "924999111",
        "correo": "contacto@extremaduraviva.es",
        "pagina_contacto": "https://extremaduraviva.es"
      }
    }
  ]
}
